CTC2_L_00674001-01
1 87108U 22115DE  26037.47799769  .00000000  00000+0  00000-0 0  9990
2 87108  55.0000   0.0000 0000000   0.0000   0.0000  1.91644752    16
CTC2_L_00674001-02
1 87109U 25253XK  26037.47799769  .00000000  00000+0  00000-0 0  9997
2 87109  55.0000   0.0000 0000000   0.0000  36.0000  1.91644752    16
CTC2_L_00674001-03
1 87110U 26962ZJ  26037.47799769  .00000000  00000+0  00000-0 0  9997
2 87110  55.0000   0.0000 0000000   0.0000  72.0000  1.91644752    18
CTC2_L_00674001-04
1 87111U 25984GE  26037.47799769  .00000000  00000+0  00000-0 0  9991
2 87111  55.0000   0.0000 0000000   0.0000 108.0000  1.91644752    19
CTC2_L_00674001-05
1 87112U 23206WS  26037.47799769  .00000000  00000+0  00000-0 0  9997
2 87112  55.0000   0.0000 0000000   0.0000 144.0000  1.91644752    10
CTC2_L_00674001-06
1 87113U 25477AE  26037.47799769  .00000000  00000+0  00000-0 0  9990
2 87113  55.0000   0.0000 0000000   0.0000 180.0000  1.91644752    11
CTC2_L_00674001-07
1 87114U 26933OA  26037.47799769  .00000000  00000+0  00000-0 0  9999
2 87114  55.0000   0.0000 0000000   0.0000 216.0000  1.91644752    12
CTC2_L_00674001-08
1 87115U 23422OO  26037.47799769  .00000000  00000+0  00000-0 0  9990
2 87115  55.0000   0.0000 0000000   0.0000 252.0000  1.91644752    13
CTC2_L_00674001-09
1 87116U 23476SK  26037.47799769  .00000000  00000+0  00000-0 0  9990
2 87116  55.0000   0.0000 0000000   0.0000 288.0000  1.91644752    13
CTC2_L_00674001-10
1 87117U 26477ZL  26037.47799769  .00000000  00000+0  00000-0 0  9995
2 87117  55.0000   0.0000 0000000   0.0000 324.0000  1.91644752    15
CTC2_L_00674002-01
1 87118U 25233SE  26037.47799769  .00000000  00000+0  00000-0 0  9995
2 87118  55.0000  30.0000 0000000   0.0000  12.0000  1.91644752    13
CTC2_L_00674002-02
1 87119U 22503KE  26037.47799769  .00000000  00000+0  00000-0 0  9993
2 87119  55.0000  30.0000 0000000   0.0000  48.0000  1.91644752    13
CTC2_L_00674002-03
1 87120U 24369DS  26037.47799769  .00000000  00000+0  00000-0 0  9997
2 87120  55.0000  30.0000 0000000   0.0000  84.0000  1.91644752    15
CTC2_L_00674002-04
1 87121U 24008IG  26037.47799769  .00000000  00000+0  00000-0 0  9998
2 87121  55.0000  30.0000 0000000   0.0000 120.0000  1.91644752    17
CTC2_L_00674002-05
1 87122U 25219RO  26037.47799769  .00000000  00000+0  00000-0 0  9994
2 87122  55.0000  30.0000 0000000   0.0000 156.0000  1.91644752    17
CTC2_L_00674002-06
1 87123U 22702WP  26037.47799769  .00000000  00000+0  00000-0 0  9999
2 87123  55.0000  30.0000 0000000   0.0000 192.0000  1.91644752    18
CTC2_L_00674002-07
1 87124U 26861PX  26037.47799769  .00000000  00000+0  00000-0 0  9990
2 87124  55.0000  30.0000 0000000   0.0000 228.0000  1.91644752    19
CTC2_L_00674002-08
1 87125U 24877HJ  26037.47799769  .00000000  00000+0  00000-0 0  9996
2 87125  55.0000  30.0000 0000000   0.0000 264.0000  1.91644752    10
CTC2_L_00674002-09
1 87126U 23686MO  26037.47799769  .00000000  00000+0  00000-0 0  9994
2 87126  55.0000  30.0000 0000000   0.0000 300.0000  1.91644752    12
CTC2_L_00674002-10
1 87127U 22455OQ  26037.47799769  .00000000  00000+0  00000-0 0  9998
2 87127  55.0000  30.0000 0000000   0.0000 336.0000  1.91644752    12
CTC2_L_00674003-01
1 87128U 24180YX  26037.47799769  .00000000  00000+0  00000-0 0  9996
2 87128  55.0000  60.0000 0000000   0.0000  24.0000  1.91644752    10
CTC2_L_00674003-02
1 87129U 25870SO  26037.47799769  .00000000  00000+0  00000-0 0  9994
2 87129  55.0000  60.0000 0000000   0.0000  60.0000  1.91644752    11
CTC2_L_00674003-03
1 87130U 25705DY  26037.47799769  .00000000  00000+0  00000-0 0  9993
2 87130  55.0000  60.0000 0000000   0.0000  96.0000  1.91644752    12
CTC2_L_00674003-04
1 87131U 26991GS  26037.47799769  .00000000  00000+0  00000-0 0  9992
2 87131  55.0000  60.0000 0000000   0.0000 132.0000  1.91644752    14
CTC2_L_00674003-05
1 87132U 23789SB  26037.47799769  .00000000  00000+0  00000-0 0  9995
2 87132  55.0000  60.0000 0000000   0.0000 168.0000  1.91644752    14
CTC2_L_00674003-06
1 87133U 24502H   26037.47799769  .00000000  00000+0  00000-0 0  9990
2 87133  55.0000  60.0000 0000000   0.0000 204.0000  1.91644752    16
CTC2_L_00674003-07
1 87134U 22549YH  26037.47799769  .00000000  00000+0  00000-0 0  9990
2 87134  55.0000  60.0000 0000000   0.0000 240.0000  1.91644752    17
CTC2_L_00674003-08
1 87135U 25674PM  26037.47799769  .00000000  00000+0  00000-0 0  9993
2 87135  55.0000  60.0000 0000000   0.0000 276.0000  1.91644752    17
CTC2_L_00674003-09
1 87136U 24026YG  26037.47799769  .00000000  00000+0  00000-0 0  9994
2 87136  55.0000  60.0000 0000000   0.0000 312.0000  1.91644752    19
CTC2_L_00674003-10
1 87137U 23744LD  26037.47799769  .00000000  00000+0  00000-0 0  9991
2 87137  55.0000  60.0000 0000000   0.0000 348.0000  1.91644752    19
CTC2_L_00674004-01
1 87138U 25864NA  26037.47799769  .00000000  00000+0  00000-0 0  9997
2 87138  55.0000  90.0000 0000000   0.0000  36.0000  1.91644752    17
CTC2_L_00674004-02
1 87139U 25839PG  26037.47799769  .00000000  00000+0  00000-0 0  9990
2 87139  55.0000  90.0000 0000000   0.0000  72.0000  1.91644752    18
CTC2_L_00674004-03
1 87140U 25828UG  26037.47799769  .00000000  00000+0  00000-0 0  9990
2 87140  55.0000  90.0000 0000000   0.0000 108.0000  1.91644752    10
CTC2_L_00674004-04
1 87141U 23127KI  26037.47799769  .00000000  00000+0  00000-0 0  9991
2 87141  55.0000  90.0000 0000000   0.0000 144.0000  1.91644752    11
CTC2_L_00674004-05
1 87142U 25679VO  26037.47799769  .00000000  00000+0  00000-0 0  9996
2 87142  55.0000  90.0000 0000000   0.0000 180.0000  1.91644752    12
CTC2_L_00674004-06
1 87143U 25589BE  26037.47799769  .00000000  00000+0  00000-0 0  9997
2 87143  55.0000  90.0000 0000000   0.0000 216.0000  1.91644752    13
CTC2_L_00674004-07
1 87144U 23806HM  26037.47799769  .00000000  00000+0  00000-0 0  9998
2 87144  55.0000  90.0000 0000000   0.0000 252.0000  1.91644752    14
CTC2_L_00674004-08
1 87145U 23699LY  26037.47799769  .00000000  00000+0  00000-0 0  9999
2 87145  55.0000  90.0000 0000000   0.0000 288.0000  1.91644752    14
CTC2_L_00674004-09
1 87146U 24940JJ  26037.47799769  .00000000  00000+0  00000-0 0  9990
2 87146  55.0000  90.0000 0000000   0.0000 324.0000  1.91644752    16
CTC2_L_00674004-10
1 87147U 23821XM  26037.47799769  .00000000  00000+0  00000-0 0  9998
2 87147  55.0000  90.0000 0000000   0.0000   0.0000  1.91644752    18
CTC2_L_00674005-01
1 87148U 23943HL  26037.47799769  .00000000  00000+0  00000-0 0  9994
2 87148  55.0000 120.0000 0000000   0.0000  48.0000  1.91644752    15
CTC2_L_00674005-02
1 87149U 26575DV  26037.47799769  .00000000  00000+0  00000-0 0  9999
2 87149  55.0000 120.0000 0000000   0.0000  84.0000  1.91644752    16
CTC2_L_00674005-03
1 87150U 24712YH  26037.47799769  .00000000  00000+0  00000-0 0  9992
2 87150  55.0000 120.0000 0000000   0.0000 120.0000  1.91644752    19
CTC2_L_00674005-04
1 87151U 23544JH  26037.47799769  .00000000  00000+0  00000-0 0  9995
2 87151  55.0000 120.0000 0000000   0.0000 156.0000  1.91644752    19
CTC2_L_00674005-05
1 87152U 26242XC  26037.47799769  .00000000  00000+0  00000-0 0  9994
2 87152  55.0000 120.0000 0000000   0.0000 192.0000  1.91644752    10
CTC2_L_00674005-06
1 87153U 26257N   26037.47799769  .00000000  00000+0  00000-0 0  9991
2 87153  55.0000 120.0000 0000000   0.0000 228.0000  1.91644752    11
CTC2_L_00674005-07
1 87154U 25465EY  26037.47799769  .00000000  00000+0  00000-0 0  9992
2 87154  55.0000 120.0000 0000000   0.0000 264.0000  1.91644752    12
CTC2_L_00674005-08
1 87155U 25645RT  26037.47799769  .00000000  00000+0  00000-0 0  9993
2 87155  55.0000 120.0000 0000000   0.0000 300.0000  1.91644752    14
CTC2_L_00674005-09
1 87156U 26716VK  26037.47799769  .00000000  00000+0  00000-0 0  9994
2 87156  55.0000 120.0000 0000000   0.0000 336.0000  1.91644752    14
CTC2_L_00674005-10
1 87157U 26039ZK  26037.47799769  .00000000  00000+0  00000-0 0  9993
2 87157  55.0000 120.0000 0000000   0.0000  12.0000  1.91644752    16
CTC2_L_00674006-01
1 87158U 25826ZT  26037.47799769  .00000000  00000+0  00000-0 0  9997
2 87158  55.0000 150.0000 0000000   0.0000  60.0000  1.91644752    13
CTC2_L_00674006-02
1 87159U 22533DS  26037.47799769  .00000000  00000+0  00000-0 0  9990
2 87159  55.0000 150.0000 0000000   0.0000  96.0000  1.91644752    13
CTC2_L_00674006-03
1 87160U 24874SY  26037.47799769  .00000000  00000+0  00000-0 0  9992
2 87160  55.0000 150.0000 0000000   0.0000 132.0000  1.91644752    16
CTC2_L_00674006-04
1 87161U 26105LE  26037.47799769  .00000000  00000+0  00000-0 0  9992
2 87161  55.0000 150.0000 0000000   0.0000 168.0000  1.91644752    16
CTC2_L_00674006-05
1 87162U 25209UF  26037.47799769  .00000000  00000+0  00000-0 0  9997
2 87162  55.0000 150.0000 0000000   0.0000 204.0000  1.91644752    18
CTC2_L_00674006-06
1 87163U 26668IR  26037.47799769  .00000000  00000+0  00000-0 0  9998
2 87163  55.0000 150.0000 0000000   0.0000 240.0000  1.91644752    19
CTC2_L_00674006-07
1 87164U 24455FQ  26037.47799769  .00000000  00000+0  00000-0 0  9991
2 87164  55.0000 150.0000 0000000   0.0000 276.0000  1.91644752    19
CTC2_L_00674006-08
1 87165U 25838YD  26037.47799769  .00000000  00000+0  00000-0 0  9998
2 87165  55.0000 150.0000 0000000   0.0000 312.0000  1.91644752    11
CTC2_L_00674006-09
1 87166U 24453ZV  26037.47799769  .00000000  00000+0  00000-0 0  9991
2 87166  55.0000 150.0000 0000000   0.0000 348.0000  1.91644752    11
CTC2_L_00674006-10
1 87167U 22960VG  26037.47799769  .00000000  00000+0  00000-0 0  9993
2 87167  55.0000 150.0000 0000000   0.0000  24.0000  1.91644752    13
CTC2_L_00674007-01
1 87168U 22825PC  26037.47799769  .00000000  00000+0  00000-0 0  9994
2 87168  55.0000 180.0000 0000000   0.0000  72.0000  1.91644752    10
CTC2_L_00674007-02
1 87169U 26553KX  26037.47799769  .00000000  00000+0  00000-0 0  9997
2 87169  55.0000 180.0000 0000000   0.0000 108.0000  1.91644752    11
